# From MPEC 2021-Y10
142P/Ge-Wang,e,12.2500,175.9747,174.0346,5.002212,0.0880970,0.49670748,86.3780,01/18.0/2024,2000,g  8.5,6.0
# From MPEC 2023-XP6
143P/Kowal-Mrkos,e,4.8956,244.1444,320.7106,4.255810,0.1122615,0.42295101,234.2908,01/18.0/2024,2000,g 13.5,2.0
# From MPEC 2024-AF0
144P/Kushida,e,3.9319,242.9255,216.3197,3.831415,0.1314212,0.63489752,358.9790,01/18.0/2024,2000,g  8.5,8.0
# From MPC108598
145P/Shoemaker-Levy,e,11.2781,26.8162,10.3018,4.133646,0.1172746,0.54260353,272.6608,01/18.0/2024,2000,g 13.5,4.0
# From MPC100284
146P/Shoemaker-LINEAR,e,23.1171,53.4200,317.0195,4.026569,0.1219836,0.64744877,335.5445,01/18.0/2024,2000,g 15.0,4.0
# From MPC 75720
147P/Kushida-Muramatsu,e,2.2912,92.1160,348.1087,4.011996,0.1226488,0.21271292,5.1397,01/18.0/2024,2000,g 14.0,4.0
# From MPEC 2023-HD1
148P/Anderson-LINEAR,e,3.6585,89.1978,8.0510,3.619669,0.1431202,0.55018326,83.4649,01/18.0/2024,2000,g 16.2,4.0
# From MPEC 2023-J29
149P/Mueller,e,34.2429,143.8575,30.4183,4.123961,0.1176880,0.32434230,234.6798,01/18.0/2024,2000,g  8.0,8.0
# From MPEC 2024-AF0
150P/LONEOS,e,18.5475,272.0596,246.1097,3.869751,0.1294731,0.54891350,352.9493,01/18.0/2024,2000,g 13.5,4.0
# From MPEC 2022-K19
151P/Helin,e,4.7281,143.1699,216.1246,5.763862,0.0712252,0.57340099,214.9099,01/18.0/2024,2000,g 10.0,6.0
# From MPEC 2023-XP6
152P/Helin-Lawrence,e,9.8777,91.8082,164.3007,4.482167,0.1038657,0.30828654,76.1603,01/18.0/2024,2000,g 11.5,4.0
# From MPC 46101
153P/Ikeya-Zhang,e,28.3565,93.6666,34.4273,50.34483,0.0027591,0.98994075,0.0000,03/05.0779/2002,2000,g  9.0,4.0
# From MPEC 2022-K19
154P/Brewington,e,17.6341,343.0164,47.9611,4.795303,0.0938599,0.67615476,346.3478,01/18.0/2024,2000,g  2.5,12.0
# From MPEC 2022-YN2
155P/Shoemaker,e,6.4068,97.1604,14.5220,6.571140,0.0585117,0.72718305,89.1792,01/18.0/2024,2000,g 10.0,4.8
# From MPEC 2023-J29
156P/Russell-LINEAR,e,17.2702,35.3420,0.4997,3.462455,0.1529776,0.61516138,176.7568,01/18.0/2024,2000,g 15.5,2.0
# From MPEC 2023-HD1
157P/Tritton,e,12.4203,287.5244,155.1110,3.546718,0.1475584,0.55679632,73.0558,01/18.0/2024,2000,g 15.0,4.0
# From MPEC 2022-VC5
157P-B/Tritton,e,12.4253,153.9210,287.1335,3.102171,0.1803871,0.49986718,89.6341,01/18.0/2024,2000,g 15.7,4.0
# From MPEC 2024-AF0
158P/Kowal-LINEAR,e,7.2855,127.9505,211.2982,5.520304,0.0759906,0.11420969,49.1702,01/18.0/2024,2000,g  9.0,4.0
# From MPEC 2021-N06
159P/LONEOS,e,23.4824,54.9587,4.6146,5.853068,0.0696031,0.38282019,143.6720,01/18.0/2024,2000,g 10.0,4.0
# From MPEC 2022-K19
160P/LINEAR,e,15.6059,333.3763,12.7846,3.777970,0.1342197,0.52562721,202.3410,01/18.0/2024,2000,g 15.5,2.0
# From MPC 75721
161P/Hartley-IRAS,e,95.8242,1.5709,47.0564,7.713416,0.0460081,0.83558108,311.9105,01/18.0/2024,2000,g  8.5,6.0
# From MPEC 2023-RF3
162P/SidingSpring,e,27.5643,30.8877,357.2114,3.092190,0.1812612,0.58314225,205.8295,01/18.0/2024,2000,g 12.0,4.0
# From MPEC 2021-S45
163P/NEAT,e,12.7183,102.0688,349.5693,3.763281,0.1350063,0.45312219,219.4601,01/18.0/2024,2000,g 14.5,4.0
# From MPEC 2021-F20
164P/Christensen,e,16.2720,88.3038,325.8787,3.652806,0.1411771,0.54122047,290.0663,01/18.0/2024,2000,g 11.0,4.0
# From MPC 75721
165P/LINEAR,e,15.8984,0.8078,125.7647,17.82207,0.0130999,0.61784795,113.1116,01/18.0/2024,2000,g 11.5,2.0
# From MPC 75722
166P/NEAT,e,15.3790,64.4339,321.7008,13.82322,0.0191774,0.38435950,151.3513,01/18.0/2024,2000,g  5.5,4.0
# From MPEC 2023-J29
167P/CINEOS,e,19.0897,295.7876,344.7373,16.25798,0.0150350,0.26857485,124.9191,01/18.0/2024,2000,g  9.5,2.0
# From MPEC 2023-J29
168P/Hergenrother,e,21.6062,355.4215,15.0710,3.586920,0.1450847,0.62157647,235.3787,01/18.0/2024,2000,g 15.5,4.0
# From MPEC 2023-J95
169P/NEAT,e,11.2951,176.0949,218.0760,2.603249,0.2346554,0.76831005,130.7644,01/18.0/2024,2000,g 16.0,2.0
# From MPEC 2024-AF0
170P/Christensen,e,10.1111,142.7531,225.2214,4.209176,0.1141323,0.30583395,31.3644,01/18.0/2024,2000,g 12.0,4.0
# From MPC102102
171P/Spahr,e,21.9490,101.6976,347.0567,3.552820,0.1471785,0.50252866,269.3247,01/18.0/2024,2000,g 13.5,4.0
# From MPEC 2024-A43
172P/Yeung,e,11.2252,30.8763,209.0759,4.219799,0.1137015,0.20448078,285.4629,01/18.0/2024,2000,g 13.0,4.0
# From MPEC 2023-N01
173P/Mueller,e,16.4901,100.3610,29.1770,5.712006,0.0721973,0.26191891,55.0403,01/18.0/2024,2000,g  7.5,4.0
# From MPC 92985
174P/Echeclus,e,4.3432,173.2943,163.4205,10.75370,0.0279491,0.45615305,89.1514,01/18.0/2024,2000,g  9.4,2.0
# From MPC114608
175P/Hergenrother,e,4.9098,110.2635,75.1549,3.667704,0.1403178,0.38134411,225.6319,01/18.0/2024,2000,g 14.0,4.0
# From MPC 89015
176P/LINEAR,e,0.2314,345.6228,34.4599,3.194539,0.1726203,0.19229916,73.1570,01/18.0/2024,2000,g 15.1,2.0
# From MPEC 2020-L06
177P/Barnard,e,31.0688,271.9942,60.5679,24.51338,0.0081208,0.95480316,51.5188,01/18.0/2024,2000,g 15.0,4.0
# From MPEC 2021-F20
178P/Hug-Bell,e,11.0894,102.8038,297.9111,3.632794,0.1423453,0.48253986,182.1116,01/18.0/2024,2000,g 14.6,4.0
# From MPEC 2024-AF0
179P/Jedicke,e,19.8945,115.5152,297.0810,5.934425,0.0681767,0.30582637,40.6716,01/18.0/2024,2000,g  2.5,8.0
# From MPEC 2023-RF3
180P/NEAT,e,16.8607,84.5606,94.6544,3.868416,0.1295401,0.35354888,24.5950,01/18.0/2024,2000,g 11.0,4.0
# From MPC 89012
181P/Shoemaker-Levy,e,17.4833,35.4195,336.2831,3.877306,0.1290949,0.70039352,95.4367,01/18.0/2024,2000,g 11.5,4.0
# From MPEC 2014-J10
182P/LONEOS,e,16.2315,72.4487,54.2098,2.949587,0.1945639,0.66348907,119.7848,01/18.0/2024,2000,g 18.0,4.0
# From MPEC 2023-A50
183P/Korlevic-Juric,e,18.8380,3.9019,165.2348,4.683644,0.0972363,0.10397360,227.7710,01/18.0/2024,2000,g 12.5,2.0
# From MPEC 2020-W26
184P/Lovas,e,4.5732,173.2756,186.5529,3.798879,0.1331131,0.55055616,156.9083,01/18.0/2024,2000,g 13.5,4.0
# From MPEC 2024-A43
185P/Petriew,e,14.0145,214.1148,181.8916,3.098345,0.1807213,0.69971160,34.1753,01/18.0/2024,2000,g 15.0,4.0
# From MPEC 2022-X67
186P/Garradd,e,28.6286,326.1639,269.1293,4.851817,0.0922247,0.12427128,170.4025,01/18.0/2024,2000,g  7.5,4.0
# From MPEC 2020-SI8
187P/LINEAR,e,13.6461,109.8563,131.1693,4.561066,0.1011823,0.15355210,210.3463,01/18.0/2024,2000,g  9.0,4.0
# From MPEC 2023-J29
188P/LINEAR-Mueller,e,10.5240,358.9447,26.7254,4.368461,0.1079472,0.41693608,271.9225,01/18.0/2024,2000,g 11.5,4.0
# From MPEC 2022-QD9
189P/NEAT,e,20.0864,281.6758,16.2804,2.943732,0.1951447,0.58907802,98.9698,01/18.0/2024,2000,g 19.0,4.0
# From MPEC 2020-K19
190P/Mueller,e,2.1745,335.5638,50.4346,4.227779,0.1133798,0.52224484,321.3281,01/18.0/2024,2000,g 13.0,4.0
# From MPEC 2022-X67
191P/McNaught,e,8.8389,98.1972,284.2188,3.639161,0.1419718,0.38576472,146.7201,01/18.0/2024,2000,g 13.0,4.0
# From MPC 75724
192P/Shoemaker-Levy,e,24.5849,51.6553,313.0425,6.460368,0.0600231,0.77330924,352.3550,01/18.0/2024,2000,g 15.0,4.0
# From MPEC 2022-Y15
193P/LINEAR-NEAT,e,10.6851,335.1859,8.1329,3.577905,0.1456334,0.39325361,127.5841,01/18.0/2024,2000,g 14.0,4.0
# From MPEC 2024-A43
194P/LINEAR,e,11.8061,349.5249,128.5628,4.119867,0.1178635,0.56319854,357.9701,01/18.0/2024,2000,g 16.0,4.0
# From MPEC 2024-AF0
195P/Hill,e,36.4077,243.1064,249.8102,6.492076,0.0595839,0.31475712,326.6996,01/18.0/2024,2000,g  8.5,4.0
# From MPEC 2022-YN2
196P/Tichy,e,19.3015,24.1137,12.0727,3.804048,0.1328419,0.42797098,59.2013,01/18.0/2024,2000,g 13.5,4.0
# From MPEC 2023-UR6
197P/LINEAR,e,25.5666,66.2960,188.9439,2.873618,0.2023301,0.62951936,82.1594,01/18.0/2024,2000,g 16.5,2.0
# From NK 1596
198P/ODAS,e,1.3387,358.2150,69.2614,3.594766,0.1446099,0.44470415,268.7986,01/18.0/2024,2000,g  9.0,4.0
# From MPEC 2023-W26
199P/Shoemaker,e,24.9387,92.3486,191.7716,5.878809,0.0691465,0.50493557,11.3006,01/18.0/2024,2000,g 10.0,4.0
# From MPEC 2022-C56
200P/Larsen,e,12.0961,234.8068,134.3441,4.949336,0.0895125,0.33215861,146.1543,01/18.0/2024,2000,g  9.0,4.0
# From MPC 93588
201P/LONEOS,e,5.7402,41.5406,19.7601,3.354781,0.1604013,0.63755416,154.9165,01/18.0/2024,2000,g 14.0,4.0
# From MPEC 2023-XP6
202P/Scotti,e,2.1416,177.3293,274.4761,4.107875,0.1183800,0.25274357,345.7495,01/18.0/2024,2000,g 13.5,4.0
# From MPEC 2021-S45
203P/Korlevic,e,2.9737,290.2609,154.8200,4.668771,0.0977013,0.31616012,138.0716,01/18.0/2024,2000,g 14.5,2.0
# From MPEC 2023-KD6
204P/LINEAR-NEAT,e,6.5962,108.4872,356.6822,3.583208,0.1453102,0.48807681,62.0562,01/18.0/2024,2000,g 14.0,4.0
# From MPEC 2023_O39
205P/Giacobini,e,15.3052,179.6096,154.1852,3.542452,0.1478251,0.56765047,108.5866,01/18.0/2024,2000,g 13.0,4.0
# From MPC 75725
206P/Barnard-Boattini,e,33.6362,202.3523,189.5453,3.490810,0.1511175,0.55147780,158.5340,01/18.0/2024,2000,g 19.0,4.0
# From MPEC 2024-AF0
207P/NEAT,e,10.2007,198.1601,272.9824,3.882515,0.1288351,0.75834717,358.2204,01/18.0/2024,2000,g 16.0,4.0
# From MPEC 2022-K19
208P/McMillan,e,4.4123,36.4023,310.6011,4.039130,0.1214150,0.37392986,333.4253,01/18.0/2024,2000,g 12.5,4.0
# From MPEC 2024-A43
209P/LINEAR,e,21.2824,62.7696,152.4885,2.958518,0.1936835,0.67398696,325.4278,01/18.0/2024,2000,g 17.0,2.0
# From MPC105242
210P/Christensen,e,10.2779,93.8241,345.8921,3.162324,0.1752647,0.83395038,241.7488,01/18.0/2024,2000,g 13.5,4.0
# From MPEC 2023-KD6
211P/Hill,e,18.9189,117.1160,4.3110,3.548683,0.1474359,0.34417480,69.3362,01/18.0/2024,2000,g 12.5,4.0
# From MPEC 2024-A43
212P/NEAT,e,22.1472,97.9769,14.0198,3.902543,0.1278446,0.58682467,347.4598,01/18.0/2024,2000,g 17.0,2.0
# From MPEC 2022-GA9
213P/Van Ness,e,10.3814,311.3103,5.7545,3.344866,0.1611150,0.40795024,10.8294,01/18.0/2024,2000,g 10.5,4.0
# From MPC 76570
213P-B/Van Ness,e,10.3808,5.7372,311.3358,3.345119,0.1610967,0.40809468,10.6830,01/18.0/2024,2000,g 17.0,4.0
# From MPC 76570
213P-C/Van Ness,e,10.3783,5.7187,311.3368,3.344456,0.1611447,0.40792903,10.9549,01/18.0/2024,2000,g 17.5,4.0
# From MPC 92986
214P/LINEAR,e,15.1847,348.2245,190.1532,3.618147,0.1432104,0.48587136,68.5787,01/18.0/2024,2000,g 13.0,4.0
# From MPEC 2023-B57
215P/NEAT,e,10.5765,56.6734,262.4226,4.333193,0.1092678,0.16553608,166.2764,01/18.0/2024,2000,g 11.0,4.0
# From MPEC 2024-AF0
